STARLINK-31298          
1 59167U 24044R   26068.80650512 -.00000872  00000+0 -22173-4 0  9998
2 59167  43.0002 106.3495 0000709 284.3027  75.7746 15.27567788113589
JINJUSAT-1B             
1 63210U 25052A   26068.66363707  .00019955  00000+0  68430-3 0  9998
2 63210  97.4113 325.4613 0005550  82.1930 277.9941 15.30194857 54866
